COSMOS 2534 [GLONASS-M] 
1 44299U 19030A   26180.66029704  .00000085  00000+0  00000+0 0  9993
2 44299  64.3700 192.1964 0013517 275.0224  73.0621  2.13102425 55189
BEIDOU-3 IGSO-2         
1 44337U 19035A   26186.31543400 -.00000084  00000+0  00000+0 0  9993
2 44337  55.2502 158.7033 0039686 216.4507 140.7507  1.00261119 25840
NAVSTAR 78 (USA 293)    
1 44506U 19056A   26185.84945336 -.00000070  00000+0  00000+0 0  9990
2 44506  55.6279 330.4419 0062939 197.9329 342.8878  2.00570103 50427
BEIDOU-3 M24            
1 44542U 19061A   26184.88799961  .00000088  00000+0  00000+0 0  9998
2 44542  54.3971 182.1644 0008559 358.8383   1.1607  1.86229357 46100
BEIDOU-3 M23            
1 44543U 19061B   26185.82154656  .00000097  00000+0  00000+0 0  9990
2 44543  54.3962 182.1016 0005863 338.9372 198.4419  1.86227694 46121
EUTELSAT 5 WEST B       
1 44624U 19067A   26186.21914031 -.00000029  00000+0  00000+0 0  9997
2 44624   0.0675 335.7417 0003294 128.8884 252.4776  1.00271462 24616
BEIDOU-3 M22            
1 44793U 19078A   26185.80204094 -.00000057  00000+0  00000+0 0  9992
2 44793  53.9190 299.2084 0005924  49.8325 310.2470  1.86227665 44975
BEIDOU-3 M21            
1 44794U 19078B   26185.94191737 -.00000057  00000+0  00000+0 0  9997
2 44794  53.8918 299.1641 0003862  47.9149 312.1457  1.86228134 44982
COSMOS 2544 [GLONASS-M] 
1 44850U 19088A   26183.51498774 -.00000008  00000+0  00000+0 0  9999
2 44850  65.5733  73.2191 0012628 256.5667 103.3590  2.13103168 51047
BEIDOU-3 M19            
1 44864U 19090A   26183.73706045 -.00000037  00000+0  00000+0 0  9996
2 44864  56.5716  62.2771 0017127 297.4170 221.8664  1.86231681 44521
BEIDOU-3 M20            
1 44865U 19090B   26183.66573100 -.00000037  00000+0  00000+0 0  9993
2 44865  56.5739  62.3139 0015125 311.8646 249.1839  1.86231813 44503
BEIDOU-3 G2             
1 45344U 20017A   26186.16478375 -.00000129  00000+0  00000+0 0  9995
2 45344   2.8985  47.5948 0002535  48.6537 326.3276  1.00271181 23442
COSMOS 2545 [GLONASS-M] 
1 45358U 20018A   26184.64845456 -.00000045  00000+0  00000+0 0  9997
2 45358  64.3444 311.8403 0009028 230.0373 129.8930  2.13102788 49017
BEIDOU-3 G3             
1 45807U 20040A   26186.31344067 -.00000341  00000+0  00000+0 0  9998
2 45807   2.4891  67.4776 0002305 334.1786 105.0497  1.00270008 22254
NAVSTAR 79 (USA 304)    
1 45854U 20041A   26184.41938361 -.00000059  00000+0  00000+0 0  9992
2 45854  56.6609  28.3098 0065536 210.5872 315.2472  2.00558496 44360
GALAXY 30 (G-30)        
1 46114U 20056C   26186.19549059  .00000050  00000+0  00000+0 0  9997
2 46114   0.0186  41.1043 0001985  65.4754 122.0039  1.00273180 21473
COSMOS 2547 [GLONASS-K] 
1 46805U 20075A   26186.24588939  .00000102  00000+0  00000+0 0  9999
2 46805  64.6010 191.8728 0009432 239.8762 120.0573  2.13100192 44299
NAVSTAR 80 (USA 309)    
1 46826U 20078A   26185.21572547  .00000073  00000+0  00000+0 0  9996
2 46826  53.9786 210.0881 0074174 207.5557 150.2596  2.00565046 41843
NAVSTAR 81 (USA 319)    
1 48859U 21054A   26185.96152687 -.00000071  00000+0  00000+0 0  9999
2 48859  55.1656 331.7461 0026095 228.4283 134.2406  2.00567994 37114
QZS-1R (MICHIBIKI-1R)   
1 49336U 21096A   26183.60705222 -.00000270  00000+0  00000+0 0  9995
2 49336  37.4911  79.3558 0755908 272.0505 280.6356  1.00250822 17169
GSAT0223 (GALILEO 27)   
1 49809U 21116A   26184.42092904 -.00000075  00000+0  00000+0 0  9993
2 49809  57.1558 341.2375 0001787 186.7549 176.0990  1.70476367 28464
GSAT0224 (GALILEO 28)   
1 49810U 21116B   26184.81984321 -.00000074  00000+0  00000+0 0  9990
2 49810  57.1559 341.2257 0001572 171.0762 189.2294  1.70476408 28494
COSMOS 2557 [GLONASS-K] 
1 52984U 22075A   26185.47156976 -.00000045  00000+0  00000+0 0  9999
2 52984  64.2874 313.8770 0010733 271.9637  87.9233  2.13102284 31086
COSMOS 2559 [GLONASS-K] 
1 54031U 22130A   26183.88345398 -.00000049  00000+0  00000+0 0  9991
2 54031  64.2611 314.0154 0012880 179.7670 180.2387  2.13101779 29022
COSMOS 2564 [GLONASS-M] 
1 54377U 22161A   26185.60367367  .00000096  00000+0  00000+0 0  9991
2 54377  64.7433 192.1335 0012271 225.1181 134.8097  2.13102039 28005
NAVSTAR 82 (USA 343)    
1 55268U 23009A   26182.76388889  .00000040  00000+0  00000+0 0  9998
2 55268  55.1238 147.9465 0006262 318.3854 293.8670  2.00571084 25533
BEIDOU-3 G4             
1 56564U 23066A   26186.31924736 -.00000269  00000+0  00000+0 0  9997
2 56564   0.4689 336.0079 0005049 178.3194  23.9034  1.00267489 11576
NVS-01 (IRNSS-1J)       
1 56759U 23076A   26186.17466380 -.00000322  00000+0  00000+0 0  9994
2 56759   2.1263 243.5442 0003096   7.8863 224.1944  1.00270353 11292
COSMOS 2569 [GLONASS-K2]
1 57517U 23114A   26186.08526413 -.00000011  00000+0  00000+0 0  9999
2 57517  65.3121  72.0171 0010021 296.4215  63.5433  2.13103774 22642
BEIDOU-3 M28            
1 58654U 23207A   26186.01893249 -.00000039  00000+0  00000+0 0  9992
2 58654  55.7683  61.7017 0002709 358.5531   1.5135  1.86229761 17177
BEIDOU-3 M26            
1 58655U 23207B   26184.20555660 -.00000038  00000+0  00000+0 0  9993
2 58655  55.7690  61.7493 0002438 322.8405  37.2117  1.86229811 17124
